{
  "type": "FeatureCollection",
  "features": [
    {
      "type": "Feature",
      "properties": {
        "norad_id": 44333,
        "name": "AT&T T-16",
        "group": "intelsat",
        "lat": 0.025118612061975645,
        "lon": 92.82887700565131,
        "alt_km": 35785.570123792735,
        "timestamp": "2025-12-09T07:41:32.871430+00:00",
        "meta_object_name": "AT&T T-16",
        "meta_object_id": "2019-034A",
        "meta_epoch": "2025-12-08T21:41:02.558112",
        "meta_mean_motion": 1.00269889,
        "meta_eccentricity": 8.709e-05,
        "meta_inclination": 0.0241,
        "meta_ra_of_asc_node": 63.5778,
        "meta_arg_of_pericenter": 102.5746,
        "meta_mean_anomaly": 136.155,
        "meta_ephemeris_type": 0,
        "meta_classification_type": "U",
        "meta_norad_cat_id": 44333,
        "meta_element_set_no": 999,
        "meta_rev_at_epoch": 2372,
        "meta_bstar": 0,
        "meta_mean_motion_dot": -1.13e-06,
        "meta_mean_motion_ddot": 0,
        "tle_line1": "1 44333U 19034A   25342.90350183 -.00000113  00000+0  00000+0 0  9993",
        "tle_line2": "2 44333   0.0241  63.5778 0000870 102.5746 136.1550  1.00269889 23720"
      },
      "geometry": {
        "type": "Point",
        "coordinates": [
          92.82887700565131,
          0.025118612061975645
        ]
      }
    },
    {
      "type": "Feature",
      "properties": {
        "norad_id": 44476,
        "name": "INTELSAT 39 (IS-39)",
        "group": "intelsat",
        "lat": -0.0350431387943282,
        "lon": -104.3460889883109,
        "alt_km": 35786.003573948525,
        "timestamp": "2025-12-09T07:41:32.871441+00:00",
        "meta_object_name": "INTELSAT 39 (IS-39)",
        "meta_object_id": "2019-049B",
        "meta_epoch": "2025-12-08T22:34:38.601120",
        "meta_mean_motion": 1.00273254,
        "meta_eccentricity": 5.569e-05,
        "meta_inclination": 0.0171,
        "meta_ra_of_asc_node": 322.4057,
        "meta_arg_of_pericenter": 194.6768,
        "meta_mean_anomaly": 321.4662,
        "meta_ephemeris_type": 0,
        "meta_classification_type": "U",
        "meta_norad_cat_id": 44476,
        "meta_element_set_no": 999,
        "meta_rev_at_epoch": 2322,
        "meta_bstar": 0,
        "meta_mean_motion_dot": 3.5e-07,
        "meta_mean_motion_ddot": 0,
        "tle_line1": "1 44476U 19049B   25342.94072455  .00000035  00000+0  00000+0 0  9996",
        "tle_line2": "2 44476   0.0171 322.4057 0000556 194.6768 321.4662  1.00273254 23223"
      },
      "geometry": {
        "type": "Point",
        "coordinates": [
          -104.3460889883109,
          -0.0350431387943282
        ]
      }
    },
    {
      "type": "Feature",
      "properties": {
        "norad_id": 46114,
        "name": "GALAXY 30 (G-30)",
        "group": "intelsat",
        "lat": 0.03812668086374474,
        "lon": 68.69597296456774,
        "alt_km": 35796.350727662466,
        "timestamp": "2025-12-09T07:41:32.871453+00:00",
        "meta_object_name": "GALAXY 30 (G-30)",
        "meta_object_id": "2020-056C",
        "meta_epoch": "2025-12-08T16:25:58.490400",
        "meta_mean_motion": 1.00271162,
        "meta_eccentricity": 0.00024167,
        "meta_inclination": 0.018,
        "meta_ra_of_asc_node": 351.851,
        "meta_arg_of_pericenter": 264.437,
        "meta_mean_anomaly": 302.8891,
        "meta_ephemeris_type": 0,
        "meta_classification_type": "U",
        "meta_norad_cat_id": 46114,
        "meta_element_set_no": 999,
        "meta_rev_at_epoch": 1938,
        "meta_bstar": 0,
        "meta_mean_motion_dot": 3.9e-07,
        "meta_mean_motion_ddot": 0,
        "tle_line1": "1 46114U 20056C   25342.68470475  .00000039  00000+0  00000+0 0  9996",
        "tle_line2": "2 46114   0.0180 351.8510 0002416 264.4370 302.8891  1.00271162 19381"
      },
      "geometry": {
        "type": "Point",
        "coordinates": [
          68.69597296456774,
          0.03812668086374474
        ]
      }
    },
    {
      "type": "Feature",
      "properties": {
        "norad_id": 54026,
        "name": "GALAXY 33 (G-33)",
        "group": "intelsat",
        "lat": 0.030010113666307944,
        "lon": 60.70309801461764,
        "alt_km": 35795.49385516333,
        "timestamp": "2025-12-09T07:41:32.871465+00:00",
        "meta_object_name": "GALAXY 33 (G-33)",
        "meta_object_id": "2022-128A",
        "meta_epoch": "2025-12-08T14:41:01.040640",
        "meta_mean_motion": 1.00271783,
        "meta_eccentricity": 0.00022673,
        "meta_inclination": 0.0159,
        "meta_ra_of_asc_node": 302.3575,
        "meta_arg_of_pericenter": 307.2936,
        "meta_mean_anomaly": 275.2199,
        "meta_ephemeris_type": 0,
        "meta_classification_type": "U",
        "meta_norad_cat_id": 54026,
        "meta_element_set_no": 999,
        "meta_rev_at_epoch": 1183,
        "meta_bstar": 0,
        "meta_mean_motion_dot": 8.1e-07,
        "meta_mean_motion_ddot": 0,
        "tle_line1": "1 54026U 22128A   25342.61181760  .00000081  00000+0  00000+0 0  9995",
        "tle_line2": "2 54026   0.0159 302.3575 0002267 307.2936 275.2199  1.00271783 11833"
      },
      "geometry": {
        "type": "Point",
        "coordinates": [
          60.70309801461764,
          0.030010113666307944
        ]
      }
    },
    {
      "type": "Feature",
      "properties": {
        "norad_id": 54027,
        "name": "GALAXY 34 (G-34)",
        "group": "intelsat",
        "lat": 0.04428849961787441,
        "lon": 64.76051002729217,
        "alt_km": 35791.92386220798,
        "timestamp": "2025-12-09T07:41:32.871478+00:00",
        "meta_object_name": "GALAXY 34 (G-34)",
        "meta_object_id": "2022-128B",
        "meta_epoch": "2025-12-08T12:04:59.032992",
        "meta_mean_motion": 1.00270185,
        "meta_eccentricity": 0.00012919,
        "meta_inclination": 0.0269,
        "meta_ra_of_asc_node": 317.8338,
        "meta_arg_of_pericenter": 287.9468,
        "meta_mean_anomaly": 244.0411,
        "meta_ephemeris_type": 0,
        "meta_classification_type": "U",
        "meta_norad_cat_id": 54027,
        "meta_element_set_no": 999,
        "meta_rev_at_epoch": 1200,
        "meta_bstar": 0,
        "meta_mean_motion_dot": 0,
        "meta_mean_motion_ddot": 0,
        "tle_line1": "1 54027U 22128B   25342.50346103  .00000000  00000+0  00000+0 0  9999",
        "tle_line2": "2 54027   0.0269 317.8338 0001291 287.9468 244.0411  1.00270185 12000"
      },
      "geometry": {
        "type": "Point",
        "coordinates": [
          64.76051002729217,
          0.04428849961787441
        ]
      }
    },
    {
      "type": "Feature",
      "properties": {
        "norad_id": 54243,
        "name": "GALAXY 31 (G-31)",
        "group": "intelsat",
        "lat": 0.01551860065336783,
        "lon": 72.70640875786627,
        "alt_km": 35793.86080278839,
        "timestamp": "2025-12-09T07:41:32.871489+00:00",
        "meta_object_name": "GALAXY 31 (G-31)",
        "meta_object_id": "2022-153A",
        "meta_epoch": "2025-12-08T21:35:10.619808",
        "meta_mean_motion": 1.00271699,
        "meta_eccentricity": 0.00019185,
        "meta_inclination": 0.0205,
        "meta_ra_of_asc_node": 257.1315,
        "meta_arg_of_pericenter": 12.3567,
        "meta_mean_anomaly": 11.2077,
        "meta_ephemeris_type": 0,
        "meta_classification_type": "U",
        "meta_norad_cat_id": 54243,
        "meta_element_set_no": 999,
        "meta_rev_at_epoch": 522,
        "meta_bstar": 0,
        "meta_mean_motion_dot": 1.5e-07,
        "meta_mean_motion_ddot": 0,
        "tle_line1": "1 54243U 22153A   25342.89942847  .00000015  00000+0  00000+0 0  9992",
        "tle_line2": "2 54243   0.0205 257.1315 0001918  12.3567  11.2077  1.00271699  5226"
      },
      "geometry": {
        "type": "Point",
        "coordinates": [
          72.70640875786627,
          0.01551860065336783
        ]
      }
    },
    {
      "type": "Feature",
      "properties": {
        "norad_id": 54244,
        "name": "GALAXY 32 (G-32)",
        "group": "intelsat",
        "lat": 0.025614483036041153,
        "lon": 102.7067548880827,
        "alt_km": 35796.83733520245,
        "timestamp": "2025-12-09T07:41:32.871501+00:00",
        "meta_object_name": "GALAXY 32 (G-32)",
        "meta_object_id": "2022-153B",
        "meta_epoch": "2025-12-08T12:27:22.096800",
        "meta_mean_motion": 1.00270602,
        "meta_eccentricity": 0.00027139,
        "meta_inclination": 0.0093,
        "meta_ra_of_asc_node": 341.4541,
        "meta_arg_of_pericenter": 326.1977,
        "meta_mean_anomaly": 225.7141,
        "meta_ephemeris_type": 0,
        "meta_classification_type": "U",
        "meta_norad_cat_id": 54244,
        "meta_element_set_no": 999,
        "meta_rev_at_epoch": 1123,
        "meta_bstar": 0,
        "meta_mean_motion_dot": -1.72e-06,
        "meta_mean_motion_ddot": 0,
        "tle_line1": "1 54244U 22153B   25342.51900575 -.00000172  00000+0  00000+0 0  9999",
        "tle_line2": "2 54244   0.0093 341.4541 0002713 326.1977 225.7141  1.00270602 11230"
      },
      "geometry": {
        "type": "Point",
        "coordinates": [
          102.7067548880827,
          0.025614483036041153
        ]
      }
    }
  ]
}